IRIDIUM 119             
1 42959U 17061E   23296.92572087  .00000480  00000+0  16446-3 0  9991
2 42959  86.3953  69.4684 0001763  89.3833 270.7565 14.34219890316174
IRIDIUM 107             
1 42960U 17061F   23296.87498238  .00000491  00000+0  16832-3 0  9993
2 42960  86.3955  69.5050 0001833  95.1146 265.0259 14.34218986316178
IRIDIUM 132             
1 42961U 17061G   23297.09063069  .00000491  00000+0  16839-3 0  9996
2 42961  86.3955  69.4008 0001862  93.9790 266.1619 14.34220558316208
IRIDIUM 136             
1 42962U 17061H   23296.91303627  .00000113  00000+0  33148-4 0  9998
2 42962  86.3954  69.4772 0002048  86.4536 273.6894 14.34216257316195
IRIDIUM 139             
1 42963U 17061J   23296.91938058  .00000185  00000+0  58998-4 0  9990
2 42963  86.3956  69.5211 0001905  95.3205 264.8208 14.34217330316206
IRIDIUM 125             
1 42964U 17061K   23296.90669472  .00000495  00000+0  16982-3 0  9991
2 42964  86.3957  69.5698 0001805  90.8221 269.3181 14.34219243316210
IRIDIUM 135             
1 43070U 17083A   23297.15989007  .00000060  00000+0  14492-4 0  9994
2 43070  86.4022   6.1736 0002419 100.4299 259.7169 14.34214137305548
IRIDIUM 138             
1 43071U 17083B   23297.18526568  .00000416  00000+0  14155-3 0  9997
2 43071  86.4008   5.9102 0002013  90.6764 269.4663 14.34218939305534
